[{"OBJECT_NAME":"TOMORROW-S1","OBJECT_ID":"2024-149M","EPOCH":"2026-03-09T17:23:34.533600","MEAN_MOTION":15.31198363,"ECCENTRICITY":0.00018188,"INCLINATION":97.3791,"RA_OF_ASC_NODE":149.6044,"ARG_OF_PERICENTER":207.204,"MEAN_ANOMALY":152.9106,"EPHEMERIS_TYPE":0,"CLASSIFICATION_TYPE":"U","NORAD_CAT_ID":60479,"ELEMENT_SET_NO":999,"REV_AT_EPOCH":8686,"BSTAR":0.0002885603,"MEAN_MOTION_DOT":8.62e-5,"MEAN_MOTION_DDOT":0},{"OBJECT_NAME":"STARLINK-33653","OBJECT_ID":"2025-063T","EPOCH":"2026-03-09T23:27:59.953536","MEAN_MOTION":15.30212451,"ECCENTRICITY":0.00014102,"INCLINATION":53.1601,"RA_OF_ASC_NODE":51.1162,"ARG_OF_PERICENTER":97.2957,"MEAN_ANOMALY":262.8204,"EPHEMERIS_TYPE":0,"CLASSIFICATION_TYPE":"U","NORAD_CAT_ID":63380,"ELEMENT_SET_NO":999,"REV_AT_EPOCH":5475,"BSTAR":0.0012337874,"MEAN_MOTION_DOT":0.00036375,"MEAN_MOTION_DDOT":0}]
